SAUDISAT 1C (SO-50)     
1 27607U 02058C   26171.45947406  .00000719  00000+0  10244-3 0  9993
2 27607  64.5513 118.8607 0075194 261.8620  97.3951 14.83052787264944
SAUDISAT 2              
1 28371U 04025F   26170.98259415  .00000173  00000+0  49656-4 0  9995
2 28371  98.5507 171.0368 0023505 289.2174  70.6480 14.56685199166159
SAUDISAT 3              
1 31118U 07012B   26171.38678826  .00000183  00000+0  37828-4 0  9992
2 31118  98.1457 121.7896 0013829 213.0078 147.0266 14.71427127 28213
PISAT                   
1 41784U 16059B   26171.41355948  .00000622  00000+0  11350-3 0  9993
2 41784  97.8178 171.7277 0028650 192.2677 167.7834 14.68987845520219
FLYING LAPTOP           
1 42831U 17042G   26172.51823965  .00002809  00000+0  22268-3 0  9990
2 42831  97.4711 327.8846 0019774 107.8494 252.4889 15.01169766487108
SALSAT                  
1 46495U 20068K   26170.95810387  .00006379  00000+0  22355-3 0  9995
2 46495  97.8854 174.1914 0007892 296.5001  63.5428 15.29832652315782
