OBJECT_NAME,OBJECT_ID,EPOCH,MEAN_MOTION,ECCENTRICITY,INCLINATION,RA_OF_ASC_NODE,ARG_OF_PERICENTER,MEAN_ANOMALY,EPHEMERIS_TYPE,CLASSIFICATION_TYPE,NORAD_CAT_ID,ELEMENT_SET_NO,REV_AT_EPOCH,BSTAR,MEAN_MOTION_DOT,MEAN_MOTION_DDOT
SAUDISAT 1C (SO-50),2002-058C,2026-06-20T11:01:38.558784,14.83052787,.0075194,64.5513,118.8607,261.8620,97.3951,0,U,27607,999,26494,.10244E-3,.719E-5,0
SAUDISAT 2,2004-025F,2026-06-19T23:34:56.134560,14.56685199,.0023505,98.5507,171.0368,289.2174,70.6480,0,U,28371,999,16615,.49656119E-4,.173E-5,0
SAUDISAT 3,2007-012B,2026-06-20T09:16:58.505664,14.71427127,.0013829,98.1457,121.7896,213.0078,147.0266,0,U,31118,999,2821,.37828E-4,.183E-5,0
PISAT,2016-059B,2026-06-20T09:55:31.539072,14.68987845,.002865,97.8178,171.7277,192.2677,167.7834,0,U,41784,999,52021,.1135E-3,.622E-5,0
FLYING LAPTOP,2017-042G,2026-06-21T12:26:15.905760,15.01169766,.0019774,97.4711,327.8846,107.8494,252.4889,0,U,42831,999,48710,.22268E-3,.2809E-4,0
SALSAT,2020-068K,2026-06-19T22:59:40.174368,15.29832652,.00078926,97.8854,174.1914,296.5001,63.5428,0,U,46495,999,31578,.22355472E-3,.6379E-4,0
